{
  "norad_id": 64326,
  "name": "STARLINK-11678 [DTC]",
  "history": [
    {
      "epoch": "2026-03-28T21:32:12.502752Z",
      "apogee_km": 357.92478890176244,
      "perigee_km": 354.76497000392374,
      "latitude_deg": 6.957777078461536e-06,
      "longitude_deg": 124.21769148733235,
      "height_km": 356.1623951742213,
      "semi_major_axis_km": 6734.481879452843,
      "eccentricity": 0.0002346,
      "inclination_deg": 43.0005,
      "raan_deg": 273.581,
      "arg_perigee_deg": 268.3933,
      "mean_anomaly_deg": 91.6666,
      "mean_motion_rev_day": 15.70892546
    },
    {
      "epoch": "2026-03-28T21:32:12.503616Z",
      "apogee_km": 357.9249909362188,
      "perigee_km": 354.76476796946736,
      "latitude_deg": 9.328937551853277e-06,
      "longitude_deg": 124.21769040588883,
      "height_km": 356.1624008371595,
      "semi_major_axis_km": 6734.481879452843,
      "eccentricity": 0.00023463,
      "inclination_deg": 43.0005,
      "raan_deg": 273.581,
      "arg_perigee_deg": 268.3933,
      "mean_anomaly_deg": 91.6666,
      "mean_motion_rev_day": 15.70892546
    },
    {
      "epoch": "2026-03-29T05:10:01.460352Z",
      "apogee_km": 356.9001160302978,
      "perigee_km": 355.78084587296416,
      "latitude_deg": 3.7404506270078075e-05,
      "longitude_deg": 7.534370134556716,
      "height_km": 355.5534538937212,
      "semi_major_axis_km": 6734.477480951631,
      "eccentricity": 8.31e-05,
      "inclination_deg": 42.9995,
      "raan_deg": 271.665,
      "arg_perigee_deg": 4.2023,
      "mean_anomaly_deg": 355.8852,
      "mean_motion_rev_day": 15.70894085
    },
    {
      "epoch": "2026-03-30T14:44:20.130432Z",
      "apogee_km": 359.1458729286451,
      "perigee_km": 354.00351646704075,
      "latitude_deg": -6.231830343066386e-05,
      "longitude_deg": -145.85537410154072,
      "height_km": 355.1888113548685,
      "semi_major_axis_km": 6734.711694697842,
      "eccentricity": 0.00038178,
      "inclination_deg": 42.9991,
      "raan_deg": 263.2319,
      "arg_perigee_deg": 296.8129,
      "mean_anomaly_deg": 63.2347,
      "mean_motion_rev_day": 15.70812139
    },
    {
      "epoch": "2026-04-01T14:02:41.284320Z",
      "apogee_km": 357.7040698195333,
      "perigee_km": 354.96044704364795,
      "latitude_deg": 8.367099037566188e-06,
      "longitude_deg": -149.2650206498812,
      "height_km": 355.60929079847887,
      "semi_major_axis_km": 6734.469258431591,
      "eccentricity": 0.0002037,
      "inclination_deg": 43.0002,
      "raan_deg": 251.3531,
      "arg_perigee_deg": 291.192,
      "mean_anomaly_deg": 68.873,
      "mean_motion_rev_day": 15.70896962
    },
    {
      "epoch": "2026-04-02T11:24:30.763584Z",
      "apogee_km": 356.58284093298334,
      "perigee_km": 354.871631353295,
      "latitude_deg": 4.048029115745979e-05,
      "longitude_deg": -115.9706269611661,
      "height_km": 355.8685717930247,
      "semi_major_axis_km": 6733.864236143138,
      "eccentricity": 0.00012706,
      "inclination_deg": 42.9992,
      "raan_deg": 245.981,
      "arg_perigee_deg": 244.4308,
      "mean_anomaly_deg": 115.6429,
      "mean_motion_rev_day": 15.71108679
    },
    {
      "epoch": "2026-04-03T10:17:53.426976Z",
      "apogee_km": 357.5068611174602,
      "perigee_km": 354.91117478830074,
      "latitude_deg": 9.960131459882445e-06,
      "longitude_deg": -105.99833362195626,
      "height_km": 355.5573177211688,
      "semi_major_axis_km": 6734.34601795288,
      "eccentricity": 0.00019272,
      "inclination_deg": 43.0002,
      "raan_deg": 240.2378,
      "arg_perigee_deg": 289.0945,
      "mean_anomaly_deg": 70.9714,
      "mean_motion_rev_day": 15.70940084
    },
    {
      "epoch": "2026-04-04T18:20:39.794208Z",
      "apogee_km": 357.23443276364014,
      "perigee_km": 354.9434490985359,
      "latitude_deg": -1.8852556326595765e-05,
      "longitude_deg": 123.94234687701663,
      "height_km": 356.10634459147497,
      "semi_major_axis_km": 6734.225940931087,
      "eccentricity": 0.0001701,
      "inclination_deg": 43.0002,
      "raan_deg": 232.1878,
      "arg_perigee_deg": 257.6619,
      "mean_anomaly_deg": 102.4058,
      "mean_motion_rev_day": 15.70982101
    },
    {
      "epoch": "2026-04-05T09:36:16.708896Z",
      "apogee_km": 357.7015204705049,
      "perigee_km": 355.32459307946647,
      "latitude_deg": -2.6598192742045863e-05,
      "longitude_deg": -109.4209898892676,
      "height_km": 356.74797459350276,
      "semi_major_axis_km": 6734.650056774985,
      "eccentricity": 0.00017647,
      "inclination_deg": 42.9998,
      "raan_deg": 228.355,
      "arg_perigee_deg": 247.1045,
      "mean_anomaly_deg": 112.9636,
      "mean_motion_rev_day": 15.70833704
    },
    {
      "epoch": "2026-04-05T17:14:05.225856Z",
      "apogee_km": 357.8964261753699,
      "perigee_km": 355.02883365295384,
      "latitude_deg": 1.6202568725964724e-05,
      "longitude_deg": 133.89644231904907,
      "height_km": 356.4631991231745,
      "semi_major_axis_km": 6734.599629914162,
      "eccentricity": 0.0002129,
      "inclination_deg": 42.9999,
      "raan_deg": 226.4379,
      "arg_perigee_deg": 260.8655,
      "mean_anomaly_deg": 99.1972,
      "mean_motion_rev_day": 15.70851347
    },
    {
      "epoch": "2026-04-05T17:14:05.226720Z",
      "apogee_km": 357.89635882937455,
      "perigee_km": 355.0289009989492,
      "latitude_deg": 1.5439053477162005e-05,
      "longitude_deg": 133.89643789499547,
      "height_km": 356.46318843211657,
      "semi_major_axis_km": 6734.599629914162,
      "eccentricity": 0.00021289,
      "inclination_deg": 42.9999,
      "raan_deg": 226.4379,
      "arg_perigee_deg": 260.8655,
      "mean_anomaly_deg": 99.1972,
      "mean_motion_rev_day": 15.70851347
    },
    {
      "epoch": "2026-04-07T08:54:36.941760Z",
      "apogee_km": 357.4137577235115,
      "perigee_km": 354.7890209688803,
      "latitude_deg": -4.534789313575373e-05,
      "longitude_deg": -112.82919091845524,
      "height_km": 356.20660244339797,
      "semi_major_axis_km": 6734.238389346196,
      "eccentricity": 0.00019488,
      "inclination_deg": 42.999,
      "raan_deg": 216.4739,
      "arg_perigee_deg": 255.3214,
      "mean_anomaly_deg": 104.7437,
      "mean_motion_rev_day": 15.70977745
    },
    {
      "epoch": "2026-04-07T16:32:25.578816Z",
      "apogee_km": 357.5391938533303,
      "perigee_km": 355.3248675560344,
      "latitude_deg": 2.8611514479568662e-05,
      "longitude_deg": 130.48797238416174,
      "height_km": 355.8967525960382,
      "semi_major_axis_km": 6734.569030704682,
      "eccentricity": 0.0001644,
      "inclination_deg": 43.0002,
      "raan_deg": 214.557,
      "arg_perigee_deg": 286.1486,
      "mean_anomaly_deg": 73.9201,
      "mean_motion_rev_day": 15.70862053
    }
  ]
}